{"type": "FeatureCollection", "features": [ {"type": "Feature", "properties": {"norad_id": 34058, "name": "COSMOS 2251 DEB", "group": "cosmos-2251-debris", "lat": 54.6531732543615, "lon": -169.4577567159059, "alt_km": 1094.0109147874182, "timestamp": "2025-12-19T20:43:00.479458+00:00", "meta": {"OBJECT_NAME": "COSMOS 2251 DEB", "OBJECT_ID": "1993-036JV", "EPOCH": "2025-12-19T05:21:08.713728", "MEAN_MOTION": 13.56085813, "ECCENTRICITY": 0.03776548, "INCLINATION": 73.9314, "RA_OF_ASC_NODE": 167.6036, "ARG_OF_PERICENTER": 161.6109, "MEAN_ANOMALY": 16.6299, "EPHEMERIS_TYPE": 0, "CLASSIFICATION_TYPE": "U", "NORAD_CAT_ID": 34058, "ELEMENT_SET_NO": 999, "REV_AT_EPOCH": 83230, "BSTAR": 0.00055656845, "MEAN_MOTION_DOT": 5.97e-06, "MEAN_MOTION_DDOT": 0}, "tle": {"line1": "1 34058U 93036JV  25353.22301752  .00000597  00000+0  55657-3 0  9992", "line2": "2 34058  73.9314 167.6036 0377654 161.6109  16.6299 13.56085813832303"}}, "geometry": {"type": "Point", "coordinates": [-169.4577567159059, 54.6531732543615]}}, {"type": "Feature", "properties": {"norad_id": 34059, "name": "COSMOS 2251 DEB", "group": "cosmos-2251-debris", "lat": -60.91787658352086, "lon": 23.812883694373067, "alt_km": 709.6193161983847, "timestamp": "2025-12-19T20:43:00.479469+00:00", "meta": {"OBJECT_NAME": "COSMOS 2251 DEB", "OBJECT_ID": "1993-036JW", "EPOCH": "2025-12-18T22:51:06.325056", "MEAN_MOTION": 14.52982124, "ECCENTRICITY": 0.00185047, "INCLINATION": 74.0365, "RA_OF_ASC_NODE": 174.5566, "ARG_OF_PERICENTER": 251.263, "MEAN_ANOMALY": 270.5815, "EPHEMERIS_TYPE": 0, "CLASSIFICATION_TYPE": "U", "NORAD_CAT_ID": 34059, "ELEMENT_SET_NO": 999, "REV_AT_EPOCH": 88549, "BSTAR": 0.00058794789, "MEAN_MOTION_DOT": 2.403e-05, "MEAN_MOTION_DDOT": 0}, "tle": {"line1": "1 34059U 93036JW  25352.95215654  .00002403  00000+0  58795-3 0  9991", "line2": "2 34059  74.0365 174.5566 0018504 251.2630 270.5815 14.52982124885499"}}, "geometry": {"type": "Point", "coordinates": [23.812883694373067, -60.91787658352086]}}, {"type": "Feature", "properties": {"norad_id": 34061, "name": "COSMOS 2251 DEB", "group": "cosmos-2251-debris", "lat": -74.01115583275346, "lon": 157.43074441188577, "alt_km": 756.1022765846674, "timestamp": "2025-12-19T20:43:00.479480+00:00", "meta": {"OBJECT_NAME": "COSMOS 2251 DEB", "OBJECT_ID": "1993-036JY", "EPOCH": "2025-12-19T03:35:03.649056", "MEAN_MOTION": 14.40370535, "ECCENTRICITY": 0.00207408, "INCLINATION": 74.039, "RA_OF_ASC_NODE": 251.5417, "ARG_OF_PERICENTER": 327.494, "MEAN_ANOMALY": 201.8657, "EPHEMERIS_TYPE": 0, "CLASSIFICATION_TYPE": "U", "NORAD_CAT_ID": 34061, "ELEMENT_SET_NO": 999, "REV_AT_EPOCH": 88272, "BSTAR": 0.00023772506, "MEAN_MOTION_DOT": 7.3e-06, "MEAN_MOTION_DDOT": 0}, "tle": {"line1": "1 34061U 93036JY  25353.14934779  .00000730  00000+0  23773-3 0  9991", "line2": "2 34061  74.0390 251.5417 0020740 327.4940 201.8657 14.40370535882724"}}, "geometry": {"type": "Point", "coordinates": [157.43074441188577, -74.01115583275346]}}, {"type": "Feature", "properties": {"norad_id": 34062, "name": "COSMOS 2251 DEB", "group": "cosmos-2251-debris", "lat": -60.163293050990774, "lon": 94.06532134541537, "alt_km": 642.6336209961864, "timestamp": "2025-12-19T20:43:00.479490+00:00", "meta": {"OBJECT_NAME": "COSMOS 2251 DEB", "OBJECT_ID": "1993-036JZ", "EPOCH": "2025-12-18T19:34:42.159936", "MEAN_MOTION": 14.78900679, "ECCENTRICITY": 0.00738945, "INCLINATION": 74.0276, "RA_OF_ASC_NODE": 126.0836, "ARG_OF_PERICENTER": 203.9995, "MEAN_ANOMALY": 276.4237, "EPHEMERIS_TYPE": 0, "CLASSIFICATION_TYPE": "U", "NORAD_CAT_ID": 34062, "ELEMENT_SET_NO": 999, "REV_AT_EPOCH": 88685, "BSTAR": 0.0022553035, "MEAN_MOTION_DOT": 0.00017416, "MEAN_MOTION_DDOT": 0}, "tle": {"line1": "1 34062U 93036JZ  25352.81576574  .00017416  00000+0  22553-2 0  9993", "line2": "2 34062  74.0276 126.0836 0073894 203.9995 276.4237 14.78900679886854"}}, "geometry": {"type": "Point", "coordinates": [94.06532134541537, -60.163293050990774]}}, {"type": "Feature", "properties": {"norad_id": 34064, "name": "COSMOS 2251 DEB", "group": "cosmos-2251-debris", "lat": -61.65682593889931, "lon": -134.40671269703313, "alt_km": 743.6640895471492, "timestamp": "2025-12-19T20:43:00.479501+00:00", "meta": {"OBJECT_NAME": "COSMOS 2251 DEB", "OBJECT_ID": "1993-036KB", "EPOCH": "2025-12-19T04:57:31.438368", "MEAN_MOTION": 14.42358761, "ECCENTRICITY": 0.00222939, "INCLINATION": 74.0321, "RA_OF_ASC_NODE": 258.8708, "ARG_OF_PERICENTER": 324.5052, "MEAN_ANOMALY": 161.4548, "EPHEMERIS_TYPE": 0, "CLASSIFICATION_TYPE": "U", "NORAD_CAT_ID": 34064, "ELEMENT_SET_NO": 999, "REV_AT_EPOCH": 88235, "BSTAR": 0.00036044596, "MEAN_MOTION_DOT": 1.168e-05, "MEAN_MOTION_DDOT": 0}, "tle": {"line1": "1 34064U 93036KB  25353.20661387  .00001168  00000+0  36045-3 0  9995", "line2": "2 34064  74.0321 258.8708 0022293 324.5052 161.4548 14.42358761882359"}}, "geometry": {"type": "Point", "coordinates": [-134.40671269703313, -61.65682593889931]}}, {"type": "Feature", "properties": {"norad_id": 34065, "name": "COSMOS 2251 DEB", "group": "cosmos-2251-debris", "lat": -16.684656281847, "lon": 69.92248482480284, "alt_km": 778.984623531549, "timestamp": "2025-12-19T20:43:00.479511+00:00", "meta": {"OBJECT_NAME": "COSMOS 2251 DEB", "OBJECT_ID": "1993-036KC", "EPOCH": "2025-12-19T03:48:25.363296", "MEAN_MOTION": 14.3806938, "ECCENTRICITY": 0.00166383, "INCLINATION": 74.0353, "RA_OF_ASC_NODE": 246.2978, "ARG_OF_PERICENTER": 342.6048, "MEAN_ANOMALY": 168.629, "EPHEMERIS_TYPE": 0, "CLASSIFICATION_TYPE": "U", "NORAD_CAT_ID": 34065, "ELEMENT_SET_NO": 999, "REV_AT_EPOCH": 88297, "BSTAR": 0.00012827117, "MEAN_MOTION_DOT": 3.63e-06, "MEAN_MOTION_DDOT": 0}, "tle": {"line1": "1 34065U 93036KC  25353.15862689  .00000363  00000+0  12827-3 0  9996", "line2": "2 34065  74.0353 246.2978 0016638 342.6048 168.6290 14.38069380882979"}}, "geometry": {"type": "Point", "coordinates": [69.92248482480284, -16.684656281847]}}, {"type": "Feature", "properties": {"norad_id": 34070, "name": "COSMOS 2251 DEB", "group": "cosmos-2251-debris", "lat": 2.6222052993497504, "lon": 103.02050367372686, "alt_km": 650.7338829188393, "timestamp": "2025-12-19T20:43:00.479522+00:00", "meta": {"OBJECT_NAME": "COSMOS 2251 DEB", "OBJECT_ID": "1993-036KH", "EPOCH": "2025-12-18T13:53:19.554720", "MEAN_MOTION": 14.77220288, "ECCENTRICITY": 0.00183565, "INCLINATION": 74.0006, "RA_OF_ASC_NODE": 104.791, "ARG_OF_PERICENTER": 221.5741, "MEAN_ANOMALY": 152.9404, "EPHEMERIS_TYPE": 0, "CLASSIFICATION_TYPE": "U", "NORAD_CAT_ID": 34070, "ELEMENT_SET_NO": 999, "REV_AT_EPOCH": 88697, "BSTAR": 0.0019519507, "MEAN_MOTION_DOT": 0.00013864, "MEAN_MOTION_DDOT": 0}, "tle": {"line1": "1 34070U 93036KH  25352.57869855  .00013864  00000+0  19520-2 0  9995", "line2": "2 34070  74.0006 104.7910 0018356 221.5741 152.9404 14.77220288886974"}}, "geometry": {"type": "Point", "coordinates": [103.02050367372686, 2.6222052993497504]}}, {"type": "Feature", "properties": {"norad_id": 34114, "name": "COSMOS 2251 DEB", "group": "cosmos-2251-debris", "lat": 38.14287109591097, "lon": 43.30507673835235, "alt_km": 669.1922402976916, "timestamp": "2025-12-19T20:43:00.479532+00:00", "meta": {"OBJECT_NAME": "COSMOS 2251 DEB", "OBJECT_ID": "1993-036KK", "EPOCH": "2025-12-19T02:32:26.336832", "MEAN_MOTION": 14.56458707, "ECCENTRICITY": 0.00477309, "INCLINATION": 74.0588, "RA_OF_ASC_NODE": 31.7684, "ARG_OF_PERICENTER": 24.1135, "MEAN_ANOMALY": 6.471, "EPHEMERIS_TYPE": 0, "CLASSIFICATION_TYPE": "U", "NORAD_CAT_ID": 34114, "ELEMENT_SET_NO": 999, "REV_AT_EPOCH": 87894, "BSTAR": 0.0011404836, "MEAN_MOTION_DOT": 5.121e-05, "MEAN_MOTION_DDOT": 0}, "tle": {"line1": "1 34114U 93036KK  25353.10586038  .00005121  00000+0  11405-2 0  9994", "line2": "2 34114  74.0588  31.7684 0047730  24.1135   6.4710 14.56458707878944"}}, "geometry": {"type": "Point", "coordinates": [43.30507673835235, 38.14287109591097]}}, {"type": "Feature", "properties": {"norad_id": 34115, "name": "COSMOS 2251 DEB", "group": "cosmos-2251-debris", "lat": 23.685535808080314, "lon": -124.87530004943201, "alt_km": 611.4510123707432, "timestamp": "2025-12-19T20:43:00.479543+00:00", "meta": {"OBJECT_NAME": "COSMOS 2251 DEB", "OBJECT_ID": "1993-036KL", "EPOCH": "2025-12-18T17:01:08.467392", "MEAN_MOTION": 14.79566951, "ECCENTRICITY": 0.00287611, "INCLINATION": 74.0061, "RA_OF_ASC_NODE": 230.1714, "ARG_OF_PERICENTER": 51.8742, "MEAN_ANOMALY": 308.502, "EPHEMERIS_TYPE": 0, "CLASSIFICATION_TYPE": "U", "NORAD_CAT_ID": 34115, "ELEMENT_SET_NO": 999, "REV_AT_EPOCH": 89500, "BSTAR": 0.00067313121, "MEAN_MOTION_DOT": 5.045e-05, "MEAN_MOTION_DDOT": 0}, "tle": {"line1": "1 34115U 93036KL  25352.70912578  .00005045  00000+0  67313-3 0  9997", "line2": "2 34115  74.0061 230.1714 0028761  51.8742 308.5020 14.79566951895006"}}, "geometry": {"type": "Point", "coordinates": [-124.87530004943201, 23.685535808080314]}}, {"type": "Feature", "properties": {"norad_id": 34116, "name": "COSMOS 2251 DEB", "group": "cosmos-2251-debris", "lat": 27.027827633833898, "lon": 177.73490575047146, "alt_km": 721.154176867547, "timestamp": "2025-12-19T20:43:00.479553+00:00", "meta": {"OBJECT_NAME": "COSMOS 2251 DEB", "OBJECT_ID": "1993-036KM", "EPOCH": "2025-12-18T21:58:57.427680", "MEAN_MOTION": 14.53010535, "ECCENTRICITY": 0.00118985, "INCLINATION": 74.0393, "RA_OF_ASC_NODE": 171.1262, "ARG_OF_PERICENTER": 247.2605, "MEAN_ANOMALY": 228.0286, "EPHEMERIS_TYPE": 0, "CLASSIFICATION_TYPE": "U", "NORAD_CAT_ID": 34116, "ELEMENT_SET_NO": 999, "REV_AT_EPOCH": 88576, "BSTAR": 0.00059725979, "MEAN_MOTION_DOT": 2.44e-05, "MEAN_MOTION_DDOT": 0}, "tle": {"line1": "1 34116U 93036KM  25352.91594245  .00002440  00000+0  59726-3 0  9993", "line2": "2 34116  74.0393 171.1262 0011898 247.2605 228.0286 14.53010535885765"}}, "geometry": {"type": "Point", "coordinates": [177.73490575047146, 27.027827633833898]}}]}